IRIDIUM 166             
1 43570U 18061B   23293.95447243  .00000204  00000+0  65675-4 0  9990
2 43570  86.3916 102.2432 0001905  95.5108 264.6305 14.34219886274332
IRIDIUM 158             
1 43571U 18061C   23294.48090822  .00000219  00000+0  70981-4 0  9999
2 43571  86.3916 102.0318 0002242  99.6837 260.4612 14.34218014274385
IRIDIUM 165             
1 43572U 18061D   23293.87836104  .00000171  00000+0  53915-4 0  9998
2 43572  86.3919 102.3121 0002276  99.7354 260.4099 14.34220032274311
IRIDIUM 155             
1 43573U 18061E   23294.46822402  .00000210  00000+0  68059-4 0  9990
2 43573  86.3914 101.9819 0001894  85.9182 274.2230 14.34218391274378
IRIDIUM 154             
1 43574U 18061F   23293.89104443  .00000169  00000+0  53166-4 0  9991
2 43574  86.3919 102.3097 0002327  87.3062 272.8400 14.34219322274336
IRIDIUM 163             
1 43575U 18061G   23294.49993666  .00000192  00000+0  61472-4 0  9997
2 43575  86.3915 102.0004 0002202  90.6446 269.5002 14.34217743274395
IRIDIUM 156             
1 43576U 18061H   23294.47456778  .00000233  00000+0  76219-4 0  9995
2 43576  86.3914 102.0169 0001959  95.3255 264.8165 14.34216616274379
IRIDIUM 164             
1 43577U 18061J   23293.96715764  .00000362  00000+0  12237-3 0  9994
2 43577  86.3917 102.2544 0002112  95.7826 264.3611 14.34217936274357
